SALSAT                  
1 46495U 20068K   26093.94381268  .00015678  00000+0  56347-3 0  9999
2 46495  97.8863  92.5537 0009436 192.6370 167.4633 15.28700775304012
OOV-CUBE (TUBSAT-30)    
1 60240U 24128F   26094.25451486  .00003898  00000+0  29990-3 0  9994
2 60240  61.9933 123.3015 0052344 117.5940 243.0481 15.02418368 95009
LPNTSAT-001 (IOD-1)     
1 68408U 26065A   26091.17010600  .00004750  00000+0  23469-3 0  9990
2 68408  97.4137 333.2788 0015408 273.4606  86.4866 15.18233471   574
